ONEWEB-0176             
1 48210U 21031A   24157.79177203 -.00000085  00000+0 -26317-3 0  9993
2 48210  87.8974  77.2051 0002049  78.8118 281.3242 13.14502246150916
ONEWEB-0184             
1 48211U 21031B   24157.53646306  .00000246  00000+0  63032-3 0  9993
2 48211  87.8966  77.2398 0003037  77.6519 282.4950 13.14502117150850
ONEWEB-0180             
1 48213U 21031D   24157.53963456  .00000253  00000+0  64876-3 0  9998
2 48213  87.8965  77.2401 0001982  72.7313 287.4033 13.14502716150785
ONEWEB-0218             
1 48214U 21031E   24157.48572057 -.00000064  00000+0 -20631-3 0  9999
2 48214  87.8970  77.2526 0003077  70.2685 289.8776 13.14503274150939
ONEWEB-0209             
1 48215U 21031F   24157.32237305  .00000082  00000+0  18675-3 0  9990
2 48215  87.8971  77.3188 0001924  72.6220 287.5120 13.14502446150912
ONEWEB-0189             
1 48217U 21031H   24157.69979924  .00000116  00000+0  27941-3 0  9996
2 48217  87.8969  77.2241 0002317  68.3456 291.7920 13.14502237150812
